H1 CPF  1  DLR 2022 07 07 10  6882 technosat            
H2  1704205 6203    42829 2022 07 07 00 00 00 2022 07 14 00 00 00    60 1 1  0 0 0
H9
10 0 59767  28800.000000  0       6046648.993         33505.639      -3463256.385
10 0 59767  28860.000000  0       6256917.614        -60205.803      -3066679.185
10 0 59767  28920.000000  0       6439952.331       -155383.813      -2657065.157
10 0 59767  28980.000000  0       6594961.661       -251384.713      -2236151.935
10 0 59767  29040.000000  0       6721278.774       -347554.767      -1805726.709
10 0 59767  29100.000000  0       6818364.655       -443234.084      -1367618.488
10 0 59767  29160.000000  0       6885810.668       -537760.579       -923690.126
10 0 59767  29220.000000  0       6923340.484       -630473.983       -475830.186
10 0 59767  29280.000000  0       6930811.406       -720719.864        -25944.674
10 0 59767  29340.000000  0       6908215.036       -807853.648        424051.415
10 0 59767  29400.000000  0       6855677.177       -891244.572        872242.570
10 0 59767  29460.000000  0       6773457.155       -970279.583       1316721.133
10 0 59767  29520.000000  0       6661946.581      -1044367.162       1755595.763
10 0 59767  29580.000000  0       6521667.296      -1112940.997       2186999.863
10 0 59767  29640.000000  0       6353268.621      -1175463.531       2609099.770
10 0 59767  29700.000000  0       6157524.064      -1231429.315       3020102.689
10 0 59767  29760.000000  0       5935327.525      -1280368.188       3418264.456
10 0 59767  29820.000000  0       5687688.897      -1321848.310       3801897.057
10 0 59767  29880.000000  0       5415729.117      -1355478.994       4169375.870
10 0 59767  29940.000000  0       5120674.680      -1380913.224       4519146.530
10 0 59767  30000.000000  0       4803851.762      -1397849.942       4849731.441
10 0 59767  30060.000000  0       4466679.906      -1406036.068       5159735.896
10 0 59767  30120.000000  0       4110665.380      -1405268.242       5447853.845
10 0 59767  30180.000000  0       3737394.116      -1395394.335       5712873.243
10 0 59767  30240.000000  0       3348524.343      -1376314.680       5953680.898
10 0 59767  30300.000000  0       2945778.989      -1347983.010       6169266.861
10 0 59767  30360.000000  0       2530937.927      -1310407.090       6358728.374
10 0 59767  30420.000000  0       2105829.999      -1263649.123       6521273.440
10 0 59767  30480.000000  0       1672324.825      -1207825.829       6656223.890
10 0 59767  30540.000000  0       1232324.498      -1143108.216       6763017.950
10 0 59767  30600.000000  0        787755.208      -1069721.060       6841212.304
10 0 59767  30660.000000  0        340558.876       -987942.108       6890483.698
10 0 59767  30720.000000  0       -107315.286       -898101.019       6910630.076
10 0 59767  30780.000000  0       -553919.123       -800578.028       6901571.238
10 0 59767  30840.000000  0       -997313.895       -695802.350       6863349.119
10 0 59767  30900.000000  0      -1435578.589       -584250.284       6796127.533
10 0 59767  30960.000000  0      -1866818.089       -466443.069       6700191.462
10 0 59767  31020.000000  0      -2289171.237       -342944.504       6575945.943
10 0 59767  31080.000000  0      -2700818.787       -214358.305       6423914.496
10 0 59767  31140.000000  0      -3099991.197        -81325.228       6244737.076
10 0 59767  31200.000000  0      -3484976.219         55479.999       6039167.580
10 0 59767  31260.000000  0      -3854126.308        195351.984       5808070.895
10 0 59767  31320.000000  0      -4205865.757        337558.181       5552419.425
10 0 59767  31380.000000  0      -4538697.486        481342.557       5273289.231
10 0 59767  31440.000000  0      -4851209.598        625929.436       4971855.740
10 0 59767  31500.000000  0      -5142081.567        770527.516       4649388.995
10 0 59767  31560.000000  0      -5410090.016        914334.023       4307248.433
10 0 59767  31620.000000  0      -5654114.042       1056538.943       3946877.319
10 0 59767  31680.000000  0      -5873140.136       1196329.368       3569796.834
10 0 59767  31740.000000  0      -6066266.667       1332893.924       3177599.767
10 0 59767  31800.000000  0      -6232707.861       1465427.225       2771943.845
10 0 59767  31860.000000  0      -6371797.251       1593134.328       2354544.759
10 0 59767  31920.000000  0      -6482990.602       1715235.193       1927168.918
10 0 59767  31980.000000  0      -6565868.317       1830969.143       1491625.912
10 0 59767  32040.000000  0      -6620137.210       1939599.255       1049760.700
10 0 59767  32100.000000  0      -6645631.640       2040416.657        603445.630
10 0 59767  32160.000000  0      -6642314.030       2132744.675        154572.341
10 0 59767  32220.000000  0      -6610274.821       2215942.853       -294956.435
10 0 59767  32280.000000  0      -6549731.757       2289410.802       -743235.156
10 0 59767  32340.000000  0      -6461028.583       2352591.867      -1188363.701
10 0 59767  32400.000000  0      -6344633.193       2404976.594      -1628455.613
10 0 59767  32460.000000  0      -6201135.153       2446105.980      -2061646.315
10 0 59767  32520.000000  0      -6031242.611       2475574.467      -2486101.240
10 0 59767  32580.000000  0      -5835778.596       2493032.626      -2900023.743
10 0 59767  32640.000000  0      -5615676.833       2498189.558      -3301662.803
10 0 59767  32700.000000  0      -5371977.046       2490814.976      -3689320.484
10 0 59767  32760.000000  0      -5105819.817       2470740.989      -4061359.112
10 0 59767  32820.000000  0      -4818441.004       2437863.568      -4416208.172
10 0 59767  32880.000000  0      -4511165.736       2392143.690      -4752370.843
10 0 59767  32940.000000  0      -4185402.065       2333608.150      -5068430.164
10 0 59767  33000.000000  0      -3842634.316       2262350.048      -5363054.812
10 0 59767  33060.000000  0      -3484416.185       2178528.965      -5635004.491
10 0 59767  33120.000000  0      -3112363.600       2082370.787      -5883134.969
10 0 59767  33180.000000  0      -2728147.337       1974167.217      -6106402.726
10 0 59767  33240.000000  0      -2333485.381       1854274.938      -6303869.159
10 0 59767  33300.000000  0      -1930135.117       1723114.445      -6474704.229
10 0 59767  33360.000000  0      -1519885.552       1581168.570      -6618189.629
10 0 59767  33420.000000  0      -1104549.484       1428980.729      -6733721.648
10 0 59767  33480.000000  0       -685955.521       1267152.821      -6820813.541
10 0 59767  33540.000000  0       -265940.139       1096342.878      -6879097.346
10 0 59767  33600.000000  0        153660.145        917262.471      -6908325.362
10 0 59767  33660.000000  0        571016.662        730673.809      -6908371.314
10 0 59767  33720.000000  0        984316.569        537386.533      -6879230.983
10 0 59767  33780.000000  0       1391770.699        338254.238      -6821022.218
10 0 59767  33840.000000  0       1791621.188        134170.773      -6733984.490
10 0 59767  33900.000000  0       2182148.942        -73933.683      -6618478.038
10 0 59767  33960.000000  0       2561681.009       -285096.749      -6474982.661
10 0 59767  34020.000000  0       2928597.850       -498328.226      -6304095.910
10 0 59767  34080.000000  0       3281340.244       -712614.658      -6106530.738
10 0 59767  34140.000000  0       3618415.907       -926924.016      -5883112.797
10 0 59767  34200.000000  0       3938405.939      -1140210.554      -5634777.376
10 0 59767  34260.000000  0       4239971.034      -1351419.893      -5362565.800
10 0 59767  34320.000000  0       4521857.325      -1559494.207      -5067621.314
10 0 59767  34380.000000  0       4782901.835      -1763377.479      -4751184.508
10 0 59767  34440.000000  0       5022037.550      -1962020.820      -4414588.343
10 0 59767  34500.000000  0       5238298.086      -2154387.830      -4059252.728
10 0 59767  34560.000000  0       5430821.929      -2339459.978      -3686678.682
10 0 59767  34620.000000  0       5598856.205      -2516241.953      -3298442.087
10 0 59767  34680.000000  0       5741759.946      -2683766.983      -2896187.038
10 0 59767  34740.000000  0       5859006.819      -2841102.062      -2481618.847
10 0 59767  34800.000000  0       5950187.291      -2987353.066      -2056496.724
10 0 59767  34860.000000  0       6015010.244      -3121669.693      -1622626.230
10 0 59767  34920.000000  0       6053304.075      -3243250.269      -1181851.457
10 0 59767  34980.000000  0       6065017.180      -3351346.358       -736046.951
10 0 59767  35040.000000  0       6050217.806      -3445267.101       -287109.485
10 0 59767  35100.000000  0       6009093.340      -3524383.281        163050.252
10 0 59767  35160.000000  0       5941949.040      -3588131.147        612516.056
10 0 59767  35220.000000  0       5849206.214      -3636015.940       1059374.704
10 0 59767  35280.000000  0       5731399.731      -3667615.010       1501724.513
10 0 59767  35340.000000  0       5589174.892      -3682580.513       1937683.743
10 0 59767  35400.000000  0       5423283.822      -3680641.766       2365398.773
10 0 59767  35460.000000  0       5234581.444      -3661607.280       2783052.195
10 0 59767  35520.000000  0       5024020.908      -3625366.331       3188870.773
10 0 59767  35580.000000  0       4792648.565      -3571890.062       3581133.076
10 0 59767  35640.000000  0       4541598.608      -3501232.249       3958176.805
10 0 59767  35700.000000  0       4272087.345      -3413529.700       4318405.925
10 0 59767  35760.000000  0       3985407.025      -3309002.221       4660297.490
10 0 59767  35820.000000  0       3682919.298      -3187952.104       4982408.007
10 0 59767  35880.000000  0       3366048.521      -3050763.214       5283379.346
10 0 59767  35940.000000  0       3036274.877      -2897899.689       5561944.317
99
